AL MUNTHER              
1 63240U 25052AG  26068.64540749  .00017933  00000+0  65015-3 0  9992
2 63240  97.4001 323.9152 0008027 130.7043 229.4895 15.28381521 54798
STARLINK-35696          
1 66489U 25263E   26068.13124291  .00055788  00000+0  20198-2 0  9990
2 66489  43.0025 353.8370 0001575 273.5250  86.5422 15.27607879 18817
